NORAD_CAT_ID,OBJECT_NAME,OBJECT_TYPE,EPOCH,MEAN_MOTION,ECCENTRICITY,INCLINATION,RA_OF_ASC_NODE,ARG_OF_PERICENTER,MEAN_ANOMALY,BSTAR,MEAN_MOTION_DOT,MEAN_MOTION_DDOT,TLE_LINE0,TLE_LINE1,TLE_LINE2,SEMIMAJOR_AXIS,PERIOD,APOGEE,PERIGEE,DECAYED
53572.0,STARLINK-4555,PAYLOAD,2023-05-08 20:28:07,15.08841091,0.0001458,53.2177,23.8439,90.9938,269.1221,0.0011847,0.00018617,0.0,0 STARLINK-4555,1 53572U 22101AX  23128.85286948  .00018617  00000-0  11847-2 0  9990,2 53572  53.2177  23.8439 0001458  90.9938 269.1221 15.08841091 40075,6917.877,95.437,540.751,538.733,0.0
53572.0,STARLINK-4555,PAYLOAD,2023-05-08 22:03:31,15.08840625,0.0001498,53.2177,23.5462,94.5863,265.53,0.0010649,0.00016701,0.0,0 STARLINK-4555,1 53572U 22101AX  23128.91910944  .00016701  00000-0  10649-2 0  9998,2 53572  53.2177  23.5462 0001498  94.5863 265.5300 15.08840625 40080,6917.878,95.438,540.78,538.707,0.0
53572.0,STARLINK-4555,PAYLOAD,2023-05-08 23:38:54,15.08848134,0.0001451,53.2179,23.2485,101.3445,258.771,0.00057348,8.853e-05,0.0,0 STARLINK-4555,1 53572U 22101AX  23128.98534751  .00008853  00000-0  57348-3 0  9990,2 53572  53.2179  23.2485 0001451 101.3445 258.7710 15.08848134 40099,6917.856,95.437,540.724,538.717,0.0
53572.0,STARLINK-4555,PAYLOAD,2023-05-09 23:29:41,15.08844931,0.0001459,53.2177,18.7896,89.7425,270.3734,0.00017808,2.548e-05,0.0,0 STARLINK-4555,1 53572U 22101AX  23129.97894826  .00002548  00000-0  17808-3 0  9994,2 53572  53.2177  18.7896 0001459  89.7425 270.3734 15.08844931 40241,6917.865,95.437,540.74,538.721,0.0
53572.0,STARLINK-4555,PAYLOAD,2023-05-10 23:20:28,15.08849013,0.0001265,53.2181,14.331,91.8806,268.2331,0.00024005,3.535e-05,0.0,0 STARLINK-4555,1 53572U 22101AX  23130.97254642  .00003535  00000-0  24005-3 0  9996,2 53572  53.2181  14.3310 0001265  91.8806 268.2331 15.08849013 40392,6917.853,95.437,540.593,538.843,0.0
53572.0,STARLINK-4555,PAYLOAD,2023-05-11 23:11:16,15.08823018,0.0001168,53.2176,9.8704,95.2578,264.8547,-0.00015951,-2.824e-05,0.0,0 STARLINK-4555,1 53572U 22101AX  23131.96616250 -.00002824  00000-0 -15951-3 0  9995,2 53572  53.2176   9.8704 0001168  95.2578 264.8547 15.08823018 40543,6917.932,95.439,540.605,538.989,0.0
53572.0,STARLINK-4555,PAYLOAD,2023-05-12 23:02:02,15.08853669,9.81e-05,53.2178,5.4091,91.8653,268.2452,0.00027993,4.172e-05,0.0,0 STARLINK-4555,1 53572U 22101AX  23132.95975341  .00004172  00000-0  27993-3 0  9999,2 53572  53.2178   5.4091 0000981  91.8653 268.2452 15.08853669 40698,6917.839,95.437,540.382,539.025,0.0
53572.0,STARLINK-4555,PAYLOAD,2023-05-13 19:42:04,15.08840919,0.0001574,53.2186,1.5334,53.6741,306.4396,0.0002723,4.048e-05,0.0,0 STARLINK-4555,1 53572U 22101AX  23133.82088328  .00004048  00000-0  27230-3 0  9992,2 53572  53.2186   1.5334 0001574  53.6741 306.4396 15.08840919 40828,6917.878,95.437,540.831,538.654,0.0
53572.0,STARLINK-4555,PAYLOAD,2023-05-13 21:17:27,15.0884417,9.46e-05,53.2174,1.2444,94.3757,265.7343,0.00029136,4.353e-05,0.0,0 STARLINK-4555,1 53572U 22101AX  23133.88712018  .00004353  00000-0  29136-3 0  9994,2 53572  53.2174   1.2444 0000946  94.3757 265.7343 15.08844170 40838,6917.868,95.437,540.387,539.078,0.0
53572.0,STARLINK-4555,PAYLOAD,2023-05-13 22:52:50,15.08846336,0.0001197,53.2188,0.942,74.68,285.4324,0.00031995,4.809e-05,0.0,0 STARLINK-4555,1 53572U 22101AX  23133.95335977  .00004809  00000-0  31995-3 0  9999,2 53572  53.2188   0.9420 0001197  74.6800 285.4324 15.08846336 40847,6917.861,95.437,540.554,538.898,0.0
53572.0,STARLINK-4555,PAYLOAD,2023-05-14 21:08:14,15.08846703,0.0001399,53.2186,356.7864,69.3225,290.7917,-8.8018e-06,-4.28e-06,0.0,0 STARLINK-4555,1 53572U 22101AX  23134.88071808 -.00000428  00000-0 -88018-5 0  9997,2 53572  53.2186 356.7864 0001399  69.3225 290.7917 15.08846703 40985,6917.86,95.437,540.693,538.757,0.0
53572.0,STARLINK-4555,PAYLOAD,2023-05-15 08:15:55,15.088455,0.0001201,53.2181,354.7047,77.1451,282.9675,-8.3546e-06,-4.21e-06,0.0,0 STARLINK-4555,1 53572U 22101AX  23135.34439648 -.00000421  00000-0 -83546-5 0  9993,2 53572  53.2181 354.7047 0001201  77.1451 282.9675 15.08845500 41058,6917.864,95.437,540.559,538.898,0.0
53572.0,STARLINK-4555,PAYLOAD,2023-05-15 20:59:01,15.08839126,0.0001256,53.2182,352.3259,83.5951,276.5185,0.00023405,3.439e-05,0.0,0 STARLINK-4555,1 53572U 22101AX  23135.87431992  .00003439  00000-0  23405-3 0  9991,2 53572  53.2182 352.3259 0001256  83.5951 276.5185 15.08839126 41135,6917.883,95.438,540.617,538.879,0.0
53572.0,STARLINK-4555,PAYLOAD,2023-05-16 14:28:15,15.08842848,0.000118,53.2187,349.0548,77.1034,283.009,7.9719e-05,9.81e-06,0.0,0 STARLINK-4555,1 53572U 22101AX  23136.60295649  .00000981  00000-0  79719-4 0  9999,2 53572  53.2187 349.0548 0001180  77.1034 283.0090 15.08842848 41246,6917.872,95.437,540.553,538.92,0.0
53572.0,STARLINK-4555,PAYLOAD,2023-05-16 20:49:47,15.08849333,0.0001134,53.2186,347.8629,93.5241,266.5881,8.3235e-05,1.037e-05,0.0,0 STARLINK-4555,1 53572U 22101AX  23136.86791054  .00001037  00000-0  83235-4 0  9999,2 53572  53.2186 347.8629 0001134  93.5241 266.5881 15.08849333 41286,6917.852,95.437,540.501,538.932,0.0
53572.0,STARLINK-4555,PAYLOAD,2023-05-17 03:11:21,15.08828419,0.0001224,53.2181,346.6751,82.7047,277.4084,-5.8665e-05,-1.221e-05,0.0,0 STARLINK-4555,1 53572U 22101AX  23137.13288663 -.00001221  00000-0 -58665-4 0  9993,2 53572  53.2181 346.6751 0001224  82.7047 277.4084 15.08828419 41321,6917.916,95.438,540.628,538.934,0.0
53572.0,STARLINK-4555,PAYLOAD,2023-05-17 19:05:12,15.0883811,0.0001174,53.2171,343.7015,89.6583,270.4544,1.4371e-05,-5.9e-07,0.0,0 STARLINK-4555,1 53572U 22101AX  23137.79527808 -.00000059  00000-0  14371-4 0  9995,2 53572  53.2171 343.7015 0001174  89.6583 270.4544 15.08838110 41420,6917.886,95.438,540.563,538.939,0.0
53572.0,STARLINK-4555,PAYLOAD,2023-05-17 20:40:35,15.08840721,0.0001028,53.2174,343.4047,87.1471,272.9639,7.4149e-05,8.93e-06,0.0,0 STARLINK-4555,1 53572U 22101AX  23137.86151736  .00000893  00000-0  74149-4 0  9990,2 53572  53.2174 343.4047 0001028  87.1471 272.9639 15.08840721 41436,6917.878,95.438,540.454,539.032,0.0
53572.0,STARLINK-4555,PAYLOAD,2023-05-18 06:12:53,15.08838908,0.0001066,53.2172,341.6207,88.9507,271.1607,3.1409e-05,2.12e-06,0.0,0 STARLINK-4555,1 53572U 22101AX  23138.25895759  .00000212  00000-0  31409-4 0  9991,2 53572  53.2172 341.6207 0001066  88.9507 271.1607 15.08838908 41499,6917.884,95.438,540.486,539.011,0.0
53572.0,STARLINK-4555,PAYLOAD,2023-05-18 22:06:45,15.08841834,0.0001063,53.2171,338.6474,92.275,267.8364,0.00019323,2.789e-05,0.0,0 STARLINK-4555,1 53572U 22101AX  23138.92135874  .00002789  00000-0  19323-3 0  9991,2 53572  53.2171 338.6474 0001063  92.2750 267.8364 15.08841834 41590,6917.875,95.437,540.475,539.004,0.0
53572.0,STARLINK-4555,PAYLOAD,2023-05-19 15:36:00,15.08840251,0.0001127,53.217,335.3765,86.995,273.1171,0.00018079,2.591e-05,0.0,0 STARLINK-4555,1 53572U 22101AX  23139.65000167  .00002591  00000-0  18079-3 0  9996,2 53572  53.2170 335.3765 0001127  86.9950 273.1171 15.08840251 41700,6917.88,95.438,540.524,538.965,0.0
53572.0,STARLINK-4555,PAYLOAD,2023-05-19 21:57:32,15.08847331,0.0001127,53.217,334.1871,86.7621,273.35,0.00027647,4.116e-05,0.0,0 STARLINK-4555,1 53572U 22101AX  23139.91495896  .00004116  00000-0  27647-3 0  9998,2 53572  53.2170 334.1871 0001127  86.7621 273.3500 15.08847331 41746,6917.858,95.437,540.503,538.943,0.0
53572.0,STARLINK-4555,PAYLOAD,2023-05-20 17:02:09,15.08851681,9.34e-05,53.2166,330.6187,91.6824,268.4275,0.00033429,5.038e-05,0.0,0 STARLINK-4555,1 53572U 22101AX  23140.70983622  .00005038  00000-0  33429-3 0  9995,2 53572  53.2166 330.6187 0000934  91.6824 268.4275 15.08851681 41867,6917.845,95.437,540.356,539.064,0.0
53572.0,STARLINK-4555,PAYLOAD,2023-05-20 20:12:55,15.08859393,0.0001097,53.2161,330.0236,94.0694,266.0423,0.000473,7.252e-05,0.0,0 STARLINK-4555,1 53572U 22101AX  23140.84231319  .00007252  00000-0  47300-3 0  9992,2 53572  53.2161 330.0236 0001097  94.0694 266.0423 15.08859393 41883,6917.821,95.436,540.445,538.927,0.0
53572.0,STARLINK-4555,PAYLOAD,2023-05-21 05:45:15,15.08841195,0.0001366,53.2157,328.2392,72.8978,287.2163,4.658e-05,4.53e-06,0.0,0 STARLINK-4555,1 53572U 22101AX  23141.23975809  .00000453  00000-0  46580-4 0  9991,2 53572  53.2157 328.2392 0001366  72.8978 287.2163 15.08841195 41942,6917.877,95.437,540.687,538.797,0.0
53572.0,STARLINK-4555,PAYLOAD,2023-05-21 12:06:47,15.08839995,0.0001379,53.2146,327.0547,70.0488,290.0652,8.1884e-05,1.015e-05,0.0,0 STARLINK-4555,1 53572U 22101AX  23141.50472086  .00001015  00000-0  81884-4 0  9991,2 53572  53.2146 327.0547 0001379  70.0488 290.0652 15.08839995 41983,6917.88,95.438,540.699,538.791,0.0
53572.0,STARLINK-4555,PAYLOAD,2023-05-21 18:28:20,15.08824783,9.48e-05,53.216,325.861,72.5761,287.5335,-0.00020566,-3.558e-05,0.0,0 STARLINK-4555,1 53572U 22101AX  23141.76968614 -.00003558  00000-0 -20566-3 0  9991,2 53572  53.2160 325.8610 0000948  72.5761 287.5335 15.08824783 42022,6917.927,95.439,540.448,539.136,0.0
53572.0,STARLINK-4555,PAYLOAD,2023-05-21 21:39:07,15.08831564,0.0001012,53.2163,325.2651,77.1537,282.9568,2.7579e-06,-2.44e-06,0.0,0 STARLINK-4555,1 53572U 22101AX  23141.90216612 -.00000244  00000-0  27579-5 0  9992,2 53572  53.2163 325.2651 0001012  77.1537 282.9568 15.08831564 42043,6917.906,95.438,540.471,539.071,0.0
53572.0,STARLINK-4555,PAYLOAD,2023-05-22 05:36:02,15.08839164,0.0001024,53.2164,323.7786,71.19,288.9203,0.00050715,7.792e-05,0.0,0 STARLINK-4555,1 53572U 22101AX  23142.23336748  .00007792  00000-0  50715-3 0  9992,2 53572  53.2164 323.7786 0001024  71.1900 288.9203 15.08839164 42098,6917.883,95.438,540.456,539.04,0.0
53572.0,STARLINK-4555,PAYLOAD,2023-05-22 21:29:54,15.08863213,0.0001039,53.2167,320.8046,64.9736,295.1364,0.0012644,0.00019905,0.0,0 STARLINK-4555,1 53572U 22101AX  23142.89576490  .00019905  00000-0  12644-2 0  9991,2 53572  53.2167 320.8046 0001039  64.9736 295.1364 15.08863213 42192,6917.809,95.436,540.393,538.956,0.0
